STARLINK-2199
1 27413C 21006A   21325.15521263  .01238250  00000-0  11189-1 0  3251
2 27413  97.4939  25.3197 0001829 216.6048 188.1341 15.66864213    15
